[{"line1":"1 42615U 74089GG  22221.13802399  .00000252  00000-0  16853-2 0  9994","line2":"2 42615 101.6002 191.1391 0077277 176.6020 245.5191 12.60153788400672"},{"line1":"1 42616U 74089GH  22220.25843742  .00000012  00000-0  69852-3 0  9996","line2":"2 42616 101.3928  40.9958 0498289 270.6187 270.4187 11.58868586727080"},{"line1":"1 42617U 74089GJ  22220.67127867  .00000008  00000-0  44613-3 0  9999","line2":"2 42617 101.4975   2.3286 0181001 232.1175 138.9999 12.19215863387994"},{"line1":"1 42618U 74089GK  17309.38881281 -.00000033 +00000-0 +93635-4 0  9995","line2":"2 42618 102.0802 278.8327 0045540 207.2713 152.5954 12.33537251166087"},{"line1":"1 42619U 74089GL  22221.14025916  .00000599  00000-0  11170-2 0  9992","line2":"2 42619 102.0610 291.4508 0186729 303.0779  83.9259 13.38759904196703"},{"line1":"1 42620U 74089GM  22219.75990189 -.00000070  00000-0 -27911-3 0  9998","line2":"2 42620 101.1661 321.6786 0145383 258.2159 100.2558 12.22983741374487"},{"line1":"1 42621U 74089GN  22221.04520760  .00000048  00000-0  99111-3 0  9992","line2":"2 42621 101.0232 253.5021 0376294 192.5876 195.8964 11.85145887376931"},{"line1":"1 42622U 74089GP  22221.60778021 -.00000023  00000-0  15071-3 0  9997","line2":"2 42622 101.4489  92.6078 0152087 220.4248 165.9360 12.24114480399864"},{"line1":"1 42623U 74089GQ  22220.19181497 -.00000023  00000-0  16745-3 0  9995","line2":"2 42623 102.1357 200.0255 0071518 275.7839  83.5076 12.43754714 57082"},{"line1":"1 42625U 74089GS  22219.90307205  .00000105  00000-0  10689-2 0  9991","line2":"2 42625 101.8565 191.2742 0005672 350.4745  36.7233 12.43653038396750"},{"line1":"1 42626U 74089GT  22221.33087121  .00000047  00000-0  51482-3 0  9996","line2":"2 42626 101.5422 183.0878 0123784 141.7902 219.2026 12.58859574401114"},{"line1":"1 42627U 74089GU  22221.17995132  .00000319  00000-0  21539-2 0  9990","line2":"2 42627 101.5510 193.3695 0062509 149.9426 210.5260 12.57288333826586"},{"line1":"1 42628U 74089GV  22221.42924026 -.00000208  00000-0 -17876-2 0  9991","line2":"2 42628 101.1525 273.4472 0259558 128.7836 233.6706 12.06785472342982"}]